[{"OBJECT_NAME":"OBJECT D","OBJECT_ID":"2024-092D","EPOCH":"2026-03-09T21:12:33.501312","MEAN_MOTION":15.33078357,"ECCENTRICITY":0.00083397,"INCLINATION":97.6418,"RA_OF_ASC_NODE":198.2302,"ARG_OF_PERICENTER":141.9853,"MEAN_ANOMALY":218.1979,"EPHEMERIS_TYPE":0,"CLASSIFICATION_TYPE":"U","NORAD_CAT_ID":59776,"ELEMENT_SET_NO":999,"REV_AT_EPOCH":10051,"BSTAR":0.00076511005,"MEAN_MOTION_DOT":0.00024443,"MEAN_MOTION_DDOT":0},{"OBJECT_NAME":"STARLINK-35971","OBJECT_ID":"2025-283T","EPOCH":"2026-03-09T06:04:55.006752","MEAN_MOTION":15.30194115,"ECCENTRICITY":0.00011803,"INCLINATION":53.1604,"RA_OF_ASC_NODE":26.4589,"ARG_OF_PERICENTER":122.6449,"MEAN_ANOMALY":237.4666,"EPHEMERIS_TYPE":0,"CLASSIFICATION_TYPE":"U","NORAD_CAT_ID":66895,"ELEMENT_SET_NO":999,"REV_AT_EPOCH":1577,"BSTAR":0.00038082893,"MEAN_MOTION_DOT":0.00010934,"MEAN_MOTION_DDOT":0}]
